[{"OBJECT_NAME":"CAS500-1","OBJECT_ID":"2021-022A","EPOCH":"2026-03-09T23:57:39.791808","MEAN_MOTION":15.20304346,"ECCENTRICITY":0.00036012,"INCLINATION":97.4003,"RA_OF_ASC_NODE":326.196,"ARG_OF_PERICENTER":278.8383,"MEAN_ANOMALY":81.2444,"EPHEMERIS_TYPE":0,"CLASSIFICATION_TYPE":"U","NORAD_CAT_ID":47932,"ELEMENT_SET_NO":999,"REV_AT_EPOCH":27569,"BSTAR":0.00044667126,"MEAN_MOTION_DOT":9.645e-5,"MEAN_MOTION_DDOT":0},{"OBJECT_NAME":"STARLINK-35892","OBJECT_ID":"2025-299P","EPOCH":"2026-03-09T22:00:01.999584","MEAN_MOTION":15.36716354,"ECCENTRICITY":0.00012105,"INCLINATION":43.0012,"RA_OF_ASC_NODE":167.5797,"ARG_OF_PERICENTER":270.1042,"MEAN_ANOMALY":50.5728,"EPHEMERIS_TYPE":0,"CLASSIFICATION_TYPE":"U","NORAD_CAT_ID":67115,"ELEMENT_SET_NO":999,"REV_AT_EPOCH":569,"BSTAR":-0.062767387,"MEAN_MOTION_DOT":-0.02076305,"MEAN_MOTION_DDOT":0}]
